OBJECT_NAME,OBJECT_ID,EPOCH,MEAN_MOTION,ECCENTRICITY,INCLINATION,RA_OF_ASC_NODE,ARG_OF_PERICENTER,MEAN_ANOMALY,EPHEMERIS_TYPE,CLASSIFICATION_TYPE,NORAD_CAT_ID,ELEMENT_SET_NO,REV_AT_EPOCH,BSTAR,MEAN_MOTION_DOT,MEAN_MOTION_DDOT
STARLINK-35041,2025-243M,2026-05-11T18:58:29.198208,15.30207352,.00016399,53.1589,312.2395,94.3562,265.7626,0,U,66188,999,3031,.42357754E-3,.12209E-3,0
STARLINK-34694,2025-243N,2026-05-11T18:49:22.174752,15.30204300,.00011888,53.1595,312.1966,78.7956,281.3178,0,U,66189,999,3031,.40049634E-3,.11522E-3,0
STARLINK-34863,2025-243P,2026-05-12T04:31:55.402752,15.30203008,.00009996,53.1590,310.4573,61.2193,298.8908,0,U,66190,999,3037,.30552037E-3,.8701E-4,0
STARLINK-35061,2025-243Q,2026-05-12T04:50:09.229344,15.30191768,.00013432,53.1597,310.5370,83.9057,276.2097,0,U,66191,999,3037,-.38092536E-4,-.1487E-4,0
STARLINK-34937,2025-243R,2026-05-12T04:54:42.999840,15.30209211,.00013165,53.1597,310.5568,84.8672,275.2479,0,U,66192,999,3037,.34561802E-3,.9894E-4,0
STARLINK-35197,2025-243S,2026-05-12T05:29:30.321024,15.30201179,.00012479,53.1611,309.9938,92.8734,267.2410,0,U,66193,999,3038,.52059824E-3,.15091E-3,0
STARLINK-35374,2025-243T,2026-05-12T05:09:16.022592,15.31709653,.00012321,53.1621,309.9114,73.3104,286.8032,0,U,66194,999,3038,.17741636E-3,.5146E-4,0
STARLINK-34813,2025-243U,2026-05-11T18:40:15.045024,15.30206840,.00009115,53.1597,312.1550,89.8703,270.2402,0,U,66195,999,3031,.50225396E-3,.14548E-3,0
STARLINK-35409,2025-243V,2026-05-11T18:44:48.494112,15.30206603,.00007522,53.1601,312.1763,93.7310,266.3777,0,U,66196,999,3031,.36496984E-3,.10468E-3,0
STARLINK-35259,2025-243W,2026-05-11T20:27:58.850208,15.30208816,.00009392,53.1590,311.9151,78.6499,281.4608,0,U,66197,999,3032,.52428727E-3,.15205E-3,0
STARLINK-35518,2025-243X,2026-05-12T04:59:16.663200,15.30201041,.00014709,53.1607,310.5723,87.8416,272.2753,0,U,66198,999,3037,.28330742E-3,.8041E-4,0
STARLINK-35509,2025-243Y,2026-05-12T05:27:59.188032,15.30201391,.00013641,53.1591,309.9856,89.9589,270.1568,0,U,66199,999,3038,.42953611E-3,.12384E-3,0
STARLINK-35551,2025-243Z,2026-05-12T05:32:32.635392,15.30200984,.00010631,53.1597,310.0052,89.5139,270.5984,0,U,66200,999,3038,.35547301E-3,.10184E-3,0
STARLINK-35543,2025-243AA,2026-05-12T06:00:02.999808,15.31704048,.0001194,53.1597,309.9433,88.9619,2.7207,0,U,66201,999,577,-.49771669E-3,-.15779E-3,0
STARLINK-35534,2025-243AB,2026-05-11T18:43:18.784128,15.30216089,.00011139,53.1596,312.1703,71.8927,288.2195,0,U,66202,999,3031,.59408339E-3,.17286E-3,0
STARLINK-35548,2025-243AC,2026-05-11T18:47:50.980416,15.30196865,.00010895,53.1594,312.1898,87.6874,272.4251,0,U,66203,999,3031,.18941926E-3,.5254E-4,0
STARLINK-35490,2025-243AD,2026-05-11T18:56:58.058304,15.30198414,.00007667,53.1589,312.2293,76.8425,283.2661,0,U,66204,999,3031,.66990946E-3,.19533E-3,0
STARLINK-35748,2025-244A,2026-05-11T21:04:14.702016,15.30204617,.0000946,53.1593,296.4327,85.5748,274.5361,0,U,66206,999,3133,.33574E-3,.9599E-4,0
STARLINK-35747,2025-244B,2026-05-12T04:10:35.476608,15.30203449,.0000773,53.1620,295.3803,85.1160,274.9930,0,U,66207,999,3137,.29667899E-3,.8439E-4,0
STARLINK-35751,2025-244C,2026-05-12T04:30:11.793600,15.30200382,.00009489,53.1596,294.8070,92.4432,267.6677,0,U,66208,999,3138,.41979357E-3,.12094E-3,0
STARLINK-35750,2025-244D,2026-05-12T04:16:31.054944,15.30207248,.00005211,53.1613,294.7471,134.1377,225.9667,0,U,66209,999,3138,.50878378E-3,.14743E-3,0
STARLINK-35740,2025-244E,2026-05-12T04:21:04.639680,15.30205783,.00009488,53.1614,294.7678,94.0827,266.0283,0,U,66210,999,3138,.40126162E-3,.11546E-3,0
STARLINK-35723,2025-244F,2026-05-12T04:11:57.699168,15.30203141,.00011421,53.1602,294.7284,87.0397,273.0734,0,U,66211,999,3137,.23115985E-3,.6494E-4,0
STARLINK-35710,2025-244G,2026-05-12T03:53:53.344608,15.30206812,.00011869,53.1594,295.3607,95.1287,264.9850,0,U,66212,999,3137,.38679541E-3,.11116E-3,0
STARLINK-34204,2025-244H,2026-05-12T04:07:24.820320,15.30226289,.00008119,53.1611,294.7113,83.5080,276.6013,0,U,66213,999,3138,.42485815E-3,.12255E-3,0
STARLINK-35714,2025-244J,2026-05-11T18:41:43.610208,15.30201843,.00008845,53.1603,297.2322,87.1958,272.9144,0,U,66214,999,3131,.32631588E-3,.9318E-4,0
STARLINK-35712,2025-244K,2026-05-12T04:24:06.936768,15.30206721,.0000776,53.1613,294.7770,97.6768,262.4321,0,U,66215,999,3138,.44161509E-3,.12745E-3,0
STARLINK-35709,2025-244L,2026-05-12T03:38:40.456032,15.30196889,.00011695,53.1592,295.2948,68.3257,291.7868,0,U,66216,999,3137,-.22612445E-3,-.7049E-4,0
STARLINK-35700,2025-244M,2026-05-12T03:29:34.205856,15.30198480,.00010111,53.1590,295.2560,76.2678,283.8435,0,U,66217,999,3136,-.33050231E-4,-.1338E-4,0
STARLINK-35722,2025-244N,2026-05-11T17:37:54.241248,15.30207937,.00008953,53.1591,296.9558,80.8189,279.2913,0,U,66218,999,3131,.73730299E-3,.21546E-3,0
