STARLINK-35041          
1 66188U 25243M   26131.79061572  .00012209  00000+0  42358-3 0  9993
2 66188  53.1589 312.2395 0001639  94.3562 265.7626 15.30207352 30314
STARLINK-34694          
1 66189U 25243N   26131.78428443  .00011522  00000+0  40050-3 0  9991
2 66189  53.1595 312.1966 0001188  78.7956 281.3178 15.30204300 30313
STARLINK-34863          
1 66190U 25243P   26132.18883568  .00008701  00000+0  30552-3 0  9992
2 66190  53.1590 310.4573 0000999  61.2193 298.8908 15.30203008 30378
STARLINK-35061          
1 66191U 25243Q   26132.20149571 -.00001487  00000+0 -38093-4 0  9990
2 66191  53.1597 310.5370 0001343  83.9057 276.2097 15.30191768 30374
STARLINK-34937          
1 66192U 25243R   26132.20466435  .00009894  00000+0  34562-3 0  9996
2 66192  53.1597 310.5568 0001316  84.8672 275.2479 15.30209211 30373
STARLINK-35197          
1 66193U 25243S   26132.22882316  .00015091  00000+0  52060-3 0  9998
2 66193  53.1611 309.9938 0001247  92.8734 267.2410 15.30201179 30387
STARLINK-35374          
1 66194U 25243T   26132.21476878  .00005146  00000+0  17742-3 0  9998
2 66194  53.1621 309.9114 0001232  73.3104 286.8032 15.31709653 30382
STARLINK-34813          
1 66195U 25243U   26131.77795191  .00014548  00000+0  50225-3 0  9990
2 66195  53.1597 312.1550 0000911  89.8703 270.2402 15.30206840 30315
STARLINK-35409          
1 66196U 25243V   26131.78111683  .00010468  00000+0  36497-3 0  9992
2 66196  53.1601 312.1763 0000752  93.7310 266.3777 15.30206603 30317
STARLINK-35259          
1 66197U 25243W   26131.85276447  .00015205  00000+0  52429-3 0  9998
2 66197  53.1590 311.9151 0000939  78.6499 281.4608 15.30208816 30320
STARLINK-35518          
1 66198U 25243X   26132.20783175  .00008041  00000+0  28331-3 0  9995
2 66198  53.1607 310.5723 0001470  87.8416 272.2753 15.30201041 30379
STARLINK-35509          
1 66199U 25243Y   26132.22776838  .00012384  00000+0  42954-3 0  9998
2 66199  53.1591 309.9856 0001364  89.9589 270.1568 15.30201391 30387
STARLINK-35551          
1 66200U 25243Z   26132.23093328  .00010184  00000+0  35547-3 0  9994
2 66200  53.1597 310.0052 0001063  89.5139 270.5984 15.30200984 30383
STARLINK-35543          
1 66201U 25243AA  26132.25003472 -.00015779  00000+0 -49772-3 0  9990
2 66201  53.1597 309.9433 0001194  88.9619   2.7207 15.31704048  5774
STARLINK-35534          
1 66202U 25243AB  26131.78007852  .00017286  00000+0  59408-3 0  9994
2 66202  53.1596 312.1703 0001113  71.8927 288.2195 15.30216089 30311
STARLINK-35548          
1 66203U 25243AC  26131.78322894  .00005254  00000+0  18942-3 0  9991
2 66203  53.1594 312.1898 0001089  87.6874 272.4251 15.30196865 30310
STARLINK-35490          
1 66204U 25243AD  26131.78956086  .00019533  00000+0  66991-3 0  9990
2 66204  53.1589 312.2293 0000766  76.8425 283.2661 15.30198414 30315
STARLINK-35748          
1 66206U 25244A   26131.87794794  .00009599  00000+0  33574-3 0  9991
2 66206  53.1593 296.4327 0000946  85.5748 274.5361 15.30204617 31334
STARLINK-35747          
1 66207U 25244B   26132.17402172  .00008439  00000+0  29668-3 0  9993
2 66207  53.1620 295.3803 0000773  85.1160 274.9930 15.30203449 31377
STARLINK-35751          
1 66208U 25244C   26132.18763650  .00012094  00000+0  41979-3 0  9997
2 66208  53.1596 294.8070 0000948  92.4432 267.6677 15.30200382 31388
STARLINK-35750          
1 66209U 25244D   26132.17813721  .00014743  00000+0  50878-3 0  9993
2 66209  53.1613 294.7471 0000521 134.1377 225.9667 15.30207248 31386
STARLINK-35740          
1 66210U 25244E   26132.18130370  .00011546  00000+0  40126-3 0  9991
2 66210  53.1614 294.7678 0000948  94.0827 266.0283 15.30205783 31387
STARLINK-35723          
1 66211U 25244F   26132.17497337  .00006494  00000+0  23116-3 0  9996
2 66211  53.1602 294.7284 0001142  87.0397 273.0734 15.30203141 31373
STARLINK-35710          
1 66212U 25244G   26132.16242297  .00011116  00000+0  38680-3 0  9998
2 66212  53.1594 295.3607 0001186  95.1287 264.9850 15.30206812 31372
STARLINK-34204          
1 66213U 25244H   26132.17181505  .00012255  00000+0  42486-3 0  9998
2 66213  53.1611 294.7113 0000811  83.5080 276.6013 15.30226289 31386
STARLINK-35714          
1 66214U 25244J   26131.77897697  .00009318  00000+0  32632-3 0  9998
2 66214  53.1603 297.2322 0000884  87.1958 272.9144 15.30201843 31318
STARLINK-35712          
1 66215U 25244K   26132.18341362  .00012745  00000+0  44162-3 0  9997
2 66215  53.1613 294.7770 0000776  97.6768 262.4321 15.30206721 31382
STARLINK-35709          
1 66216U 25244L   26132.15185713 -.00007049  00000+0 -22612-3 0  9990
2 66216  53.1592 295.2948 0001169  68.3257 291.7868 15.30196889 31370
STARLINK-35700          
1 66217U 25244M   26132.14553479 -.00001338  00000+0 -33050-4 0  9992
2 66217  53.1590 295.2560 0001011  76.2678 283.8435 15.30198480 31360
STARLINK-35722          
1 66218U 25244N   26131.73465557  .00021546  00000+0  73730-3 0  9995
2 66218  53.1591 296.9558 0000895  80.8189 279.2913 15.30207937 31317
